[{"OBJECT_NAME":"STARLINK-3681","OBJECT_ID":"2022-025N","EPOCH":"2026-03-09T04:43:49.304352","MEAN_MOTION":15.29349023,"ECCENTRICITY":0.00015422,"INCLINATION":53.1573,"RA_OF_ASC_NODE":26.5377,"ARG_OF_PERICENTER":77.2671,"MEAN_ANOMALY":282.8502,"EPHEMERIS_TYPE":0,"CLASSIFICATION_TYPE":"U","NORAD_CAT_ID":51968,"ELEMENT_SET_NO":999,"REV_AT_EPOCH":22094,"BSTAR":2.5123415e-5,"MEAN_MOTION_DOT":3.69e-6,"MEAN_MOTION_DDOT":0},{"OBJECT_NAME":"CZ-6A DEB","OBJECT_ID":"2024-140GE","EPOCH":"2026-03-09T23:15:37.114848","MEAN_MOTION":15.28179091,"ECCENTRICITY":0.00907227,"INCLINATION":89.625,"RA_OF_ASC_NODE":325.5051,"ARG_OF_PERICENTER":77.5431,"MEAN_ANOMALY":283.5952,"EPHEMERIS_TYPE":0,"CLASSIFICATION_TYPE":"U","NORAD_CAT_ID":60803,"ELEMENT_SET_NO":999,"REV_AT_EPOCH":8608,"BSTAR":0.0028689301,"MEAN_MOTION_DOT":0.00089907,"MEAN_MOTION_DDOT":0}]
